GALAXY 25 (G-25)        
1 24812U 97026A   22359.40943339 -.00000212  00000+0  00000+0 0  9991
2 24812   4.1657  81.7392 0000928 283.4396 223.6185  0.99038750 93635
INTELSAT 5 (IS-5)       
1 24916U 97046A   22358.51255206 -.00000057  00000+0  00000+0 0  9995
2 24916   7.6332  59.7172 0005694 197.7307 186.2181  1.00272150 92886
GALAXY 11 (G-11)        
1 26038U 99071A   22359.39330785 -.00000157  00000+0  00000+0 0  9996
2 26038   3.5074  85.2887 0001472 237.3223 179.7535  1.00270738 84348
INTELSAT 9 (IS-9)       
1 26451U 00043A   22359.15154903 -.00000285  00000+0  00000+0 0  9998
2 26451   7.6202  59.8966 0003452 202.2021 196.1058  1.00272256 82110
INTELSAT 1R (IS-1R)     
1 26608U 00072A   22358.58245848 -.00000132  00000+0  00000+0 0  9990
2 26608   4.8750  78.5943 0000135  43.5509 337.7209  1.00270997 28588
INTELSAT 10 (IS-10)     
1 26766U 01019A   22359.37561334  .00000037  00000+0  00000+0 0  9999
2 26766   6.0312  71.7204 0003778 193.5787 141.5792  1.00270616 79195
INTELSAT 901 (IS-901)   
1 26824U 01024A   22359.40638262 -.00000194  00000+0  00000+0 0  9994
2 26824   0.0157   7.1471 0000738 278.2719 287.2824  1.00270133 78859
INTELSAT 902 (IS-902)   
1 26900U 01039A   22358.82805757 -.00000274  00000+0  00000+0 0  9994
2 26900   2.8847  86.8941 0003616 192.4509  61.9732  1.00270510 77952
INTELSAT 904 (IS-904)   
1 27380U 02007A   22359.47777076 -.00000209  00000+0  00000+0 0  9995
2 27380   3.7159  83.8983 0002977 201.7053 310.8499  1.00270392 76358
DIRECTV 5 (TEMPO 1)     
1 27426U 02023A   22358.60093749 -.00000045  00000+0  00000+0 0  9994
2 27426   1.6110  90.9523 0002984 183.9290 284.4457  1.00270385 75388
INTELSAT 905 (IS-905)   
1 27438U 02027A   22359.47872958 -.00000180  00000+0  00000+0 0  9994
2 27438   3.5383  84.6145 0002488 189.2507 327.9352  1.00269499 75238
GALAXY 3C (G-3C)        
1 27445U 02030A   22358.81918821 -.00000142  00000+0  00000+0 0  9991
2 27445   0.4635  92.0357 0001025 231.0914 330.2494  1.00270016 33756
INTELSAT 906 (IS-906)   
1 27513U 02041A   22359.13774000  .00000022  00000+0  00000+0 0  9990
2 27513   2.5552  88.2989 0004925 173.2245 305.8270  1.00271215 74237
GALAXY 12 (G-12)        
1 27715U 03013B   22358.66892626  .00000066  00000+0  00000+0 0  9994
2 27715   3.7465  83.5673 0001699 197.9435 283.4657  1.00270845 39356
GALAXY 23 (G-23)        
1 27854U 03034A   22359.10086919  .00000022  00000+0  00000+0 0  9993
2 27854   0.0178  88.5010 0002844 184.8793  95.5313  1.00271917 75819
GALAXY 13 (HORIZONS-1)  
1 27954U 03044A   22358.66936208  .00000059  00000+0  00000+0 0  9990
2 27954   0.0388  65.8722 0000857 134.5037   6.7166  1.00272996 33830
INTELSAT 10-02          
1 28358U 04022A   22359.05304325 -.00000002  00000+0  00000+0 0  9998
2 28358   0.0161  64.8131 0000992 252.6879 154.1566  1.00269162 67893
XM-3 (RHYTHM)           
1 28626U 05008A   22359.17975353 -.00000196  00000+0  00000+0 0  9993
2 28626   0.0544 175.6785 0001262  11.4810 246.1226  1.00268981 65339
DIRECTV 8               
1 28659U 05019A   22358.74249359  .00000012  00000+0  00000+0 0  9999
2 28659   0.0191  37.2027 0002743 237.0832 327.2116  1.00270178 64339
GALAXY 28 (G-28)        
1 28702U 05022A   22358.82032135 -.00000174  00000+0  00000+0 0  9993
2 28702   0.0226  45.4240 0002979 253.1468   1.0562  1.00270652 39241
GALAXY 14 (G-14)        
1 28790U 05030A   22359.20328810  .00000163  00000+0  00000+0 0  9997
2 28790   1.7454  90.1420 0001772 177.0616 292.5583  1.00269991 63561
GALAXY 15 (G-15)        
1 28884U 05041A   22359.40118865  .00000022  00000+0  00000+0 0  9996
2 28884   0.2993  92.6550 0004615 190.5567 192.9374  1.00313058 62870
SPACEWAY 2              
1 28903U 05046B   22359.16903223  .00000110  00000+0  00000+0 0  9994
2 28903   2.3408  86.1831 0000510 184.6431 104.7738  1.00270683 62769
GALAXY 16 (G-16)        
1 29236U 06023A   22359.10531461 -.00000118  00000+0  00000+0 0  9994
2 29236   0.0201  58.0713 0002494 224.6492 109.7847  1.00270449 60536
DIRECTV 9S              
1 29494U 06043A   22358.81779358 -.00000102  00000+0  00000+0 0  9991
2 29494   0.0192   9.9125 0002777 264.0772  12.5219  1.00269377 38645
XM-4 (BLUES)            
1 29520U 06049A   22359.47274388 -.00000198  00000+0  00000+0 0  9998
2 29520   0.0411 271.4191 0001987  59.9211 207.7101  1.00274451 59267
GALAXY 17 (G-17)        
1 31307U 07016B   22359.17862038 -.00000165  00000+0  00000+0 0  9995
2 31307   0.0156 359.1402 0002273 271.6598 156.1890  1.00270247 57346
DIRECTV 10              
1 31862U 07032A   22359.34216059 -.00000094  00000+0  00000+0 0  9995
2 31862   0.0094 122.1283 0000248  32.0596 320.0277  1.00268177 56670
SPACEWAY 3              
1 32018U 07036A   22359.53729869 -.00000145  00000+0  00000+0 0  9999
2 32018   0.7167  91.2049 0000632   4.9913  96.3040  1.00270605 56395
INTELSAT 11 (IS-11)     
1 32253U 07044B   22358.82953938 -.00000258  00000+0  00000+0 0  9991
2 32253   0.2728  93.8933 0003195 201.3819  53.6864  1.00270152 55755
HORIZONS-2              
1 32388U 07063B   22359.46896709 -.00000246  00000+0  00000+0 0  9991
2 32388   0.0162 310.2128 0002120 344.8629 253.9190  1.00272579 55140
DIRECTV 11              
1 32729U 08013A   22359.53729869 -.00000118  00000+0  00000+0 0  9994
2 32729   0.0305 130.4261 0000821 157.6032 260.2322  1.00271873 54202
GALAXY 18 (G-18)        
1 32951U 08024A   22358.74179627  .00000036  00000+0  00000+0 0  9994
2 32951   0.0145  60.0068 0002753 212.3068 324.9628  1.00270411 33119
INTELSAT 25 (IS-25)     
1 33153U 08034A   22359.47733494 -.00000216  00000+0  00000+0 0  9990
2 33153   0.0162 356.5761 0002742 279.1529 318.5784  1.00273413 52902
GALAXY 19 (G-19)        
1 33376U 08045A   22359.46426019 -.00000131  00000+0  00000+0 0  9996
2 33376   0.0173  13.7823 0002573 259.5882 250.7166  1.00270538 52106
FM-5                    
1 35493U 09034A   22358.82093150 -.00000189  00000+0  00000+0 0  9995
2 35493   0.0171  13.6808 0000486 139.0488 149.9864  1.00270348 33903
INTELSAT 14 (IS-14)     
1 36097U 09064A   22359.47437133 -.00000266  00000+0  00000+0 0  9990
2 36097   0.0175   7.9564 0002272 271.3538 300.4145  1.00268833 47967
INTELSAT 15 (IS-15)     
1 36106U 09067A   22359.44146662 -.00000177  00000+0  00000+0 0  9996
2 36106   0.0178  36.7706 0002036 235.5818  65.6570  1.00270596 47871
DIRECTV 12              
1 36131U 09075A   22359.24800375 -.00000095  00000+0  00000+0 0  9998
2 36131   0.0117 157.6103 0000198 285.8160 356.8723  1.00269895 47652
INTELSAT 16 (IS-16)     
1 36397U 10006A   22358.82293630 -.00000234  00000+0  00000+0 0  9996
2 36397   0.0143  31.3152 0001829 234.6149  47.4503  1.00270710 46913
XM-5                    
1 37185U 10053A   22359.39563426 -.00000015  00000+0  00000+0 0  9997
2 37185   0.0069  52.4264 0001033  91.9627 336.7374  1.00270749 44714
INTELSAT 17 (IS-17)     
1 37238U 10065B   22359.49677274  .00000006  00000+0  00000+0 0  9996
2 37238   0.0114 289.0694 0002645 353.5095  56.2421  1.00271160 44181
INTELSAT NEW DAWN       
1 37392U 11016A   22358.84461892  .00000166  00000+0  00000+0 0  9996
2 37392   0.0145  32.5183 0000572 255.3988 142.3005  1.00274405 40543
INTELSAT 18 (IS-18)     
1 37834U 11056A   22358.80219102  .00000063  00000+0  00000+0 0  9998
2 37834   0.0217  19.2571 0001672 247.3405 295.4890  1.00270403 41079
INTELSAT 22 (IS-22)     
1 38098U 12011A   22358.88521642 -.00000049  00000+0  00000+0 0  9991
2 38098   0.0159  50.8784 0002576 212.6168 220.6705  1.00272671 39081
INTELSAT 19 (IS-19)     
1 38356U 12030A   22359.15804946 -.00000048  00000+0  00000+0 0  9990
2 38356   0.0165  10.8143 0002983 266.3500  39.3893  1.00270248 38774
INTELSAT 20 (IS-20)     
1 38740U 12043A   22359.42555892 -.00000016  00000+0  00000+0 0  9999
2 38740   0.0095  73.2352 0003134 126.9218 115.4583  1.00270251 38095
INTELSAT 21 (IS-21)     
1 38749U 12045A   22359.18515778 -.00000276  00000+0  00000+0 0  9990
2 38749   0.0136  13.5451 0001600 257.7468 191.0479  1.00270924 37903
INTELSAT 23 (IS-23)     
1 38867U 12057A   22359.47306385 -.00000277  00000+0  00000+0 0  9999
2 38867   0.0179  72.0034 0001484 269.7310 229.5336  1.00269365 37374
FM-6                    
1 39360U 13058A   22359.49632573 -.00000010  00000+0  00000+0 0  9998
2 39360   0.0290  49.1067 0000608 168.5376 298.8530  1.00272128 33612
INTELSAT 30 (IS-30)     
1 40271U 14062A   22359.39295919 -.00000143  00000+0  00000+0 0  9992
2 40271   0.0170  24.4270 0002508  85.0606  30.8095  1.00270952 30030
DIRECTV 14              
1 40333U 14078B   22359.49077123 -.00000118  00000+0  00000+0 0  9996
2 40333   0.0253  61.2692 0000593 100.8455   9.3079  1.00270402 29512
DIRECTV 15              
1 40663U 15026A   22358.96106309 -.00000093  00000+0  00000+0 0  9998
2 40663   0.0175  19.8242 0000360 107.1222 209.6328  1.00271063 27799
SKY MEXICO-1            
1 40664U 15026B   22359.46792111 -.00000227  00000+0  00000+0 0  9996
2 40664   0.0106 358.5965 0001932 281.5907 263.4581  1.00270655 27809
INTELSAT 34 (IS-34)     
1 40874U 15039A   22358.82701160 -.00000275  00000+0  00000+0 0  9999
2 40874   0.0113 356.4105 0000559 166.8460 172.3107  1.00270477 26887
INTELSAT 31 (IS-31)     
1 41581U 16035A   22358.81918821 -.00000140  00000+0  00000+0 0  9996
2 41581   0.0188 277.6770 0002357 276.3128  99.1792  1.00271065 23958
INTELSAT 36 (IS-36)     
1 41747U 16053A   22358.49311425 -.00000013  00000+0  00000+0 0  9990
2 41747   0.0109   2.5825 0000824  22.8150 313.6197  1.00270403 23203
INTELSAT 33E (IS-33E)   
1 41748U 16053B   22359.49555243  .00000057  00000+0  00000+0 0  9997
2 41748   0.0156 320.8906 0001628 298.6351  72.8464  1.00272309 23489
INTELSAT 32E (IS-32E)   
1 41945U 17007B   22358.68601062 -.00000258  00000+0  00000+0 0  9991
2 41945   0.0176  22.8038 0000701 125.9797 148.1897  1.00270591 21499
INTELSAT 35E (IS-35E)   
1 42818U 17041A   22359.47672479 -.00000231  00000+0  00000+0 0  9998
2 42818   0.0182 340.3416 0001510 299.0652 311.6754  1.00269477 20079
INTELSAT 37E (IS-37E)   
1 42950U 17059A   22359.15237997 -.00000132  00000+0  00000+0 0  9991
2 42950   0.0190  36.6983 0002522 238.5577 215.2408  1.00271231 19318
AZERSPACE 2 (IS-38)     
1 43632U 18074A   22358.56014422  .00000148  00000+0  00000+0 0  9993
2 43632   0.0174  12.3682 0001125 259.6576  67.8090  1.00270473 15700
HORIZONS-3E             
1 43633U 18074B   22359.23039642 -.00000022  00000+0  00000+0 0  9992
2 43633   0.0424 159.1150 0000909 113.9902  72.5314  1.00270227 15588
AT&T T-16               
1 44333U 19034A   22358.81788073 -.00000104  00000+0  00000+0 0  9990
2 44333   0.0235  71.9283 0000842  92.5261 122.4345  1.00268578 12896
INTELSAT 39 (IS-39)     
1 44476U 19049B   22358.49180677  .00000046  00000+0  00000+0 0  9998
2 44476   0.0054  45.4873 0001288  91.1011 195.4038  1.00269993 12393
GALAXY 30 (G-30)        
1 46114U 20056C   22359.22688332  .00000046  00000+0  00000+0 0  9992
2 46114   0.0166  20.5147 0001835 249.9784 139.8853  1.00270905  8661
GALAXY 33 (G-33)        
1 54026U 22128A   22358.66814178  .00000090  00000+0  00000+0 0  9990
2 54026   0.0179  56.2546 0001591 217.9258 286.5219  1.00270757  1018
GALAXY 34 (G-34)        
1 54027U 22128B   22359.09820869  .00000068  00000+0  00000+0 0  9998
2 54027   0.0214  13.3154 0001594  68.4411 278.2616  1.00269259  1048
GALAXY 31 (G-31)        
1 54243U 22153A   22357.68653740  .00000134  00000+0  00000+0 0  9995
2 54243   0.0440 118.0950 0001905 158.4260 275.2040  1.00465324   402
GALAXY 32 (G-32)        
1 54244U 22153B   22358.73665353  .00000142  00000+0  00000+0 0  9995
2 54244   0.0288  61.0934 0002170 225.0534 283.2433  1.00272087   410
GALAXY 35 (G-35)        
1 54741U 22170A   22359.02340794  .00000142  00000+0  00000+0 0  9998
2 54741   0.0502 234.8376 0002170 156.6610 280.3847  1.00272151   166
GALAXY 36 (G-36)        
1 54742U 22170B   22359.59718684  .00000140  00000+0  00000+0 0  9996
2 54742   0.0048 292.4056 0001503 316.8886 269.7979  1.00269339   184
